STARLINK-6241           
1 56409U 23061AM  26067.62372203  .00000109  00000+0  23108-4 0  9999
2 56409  43.0031 190.3175 0001365 275.4831  84.5856 15.02534651156749
LEMUR-2-ALISIA          
1 62706U 25009DB  26068.73770453  .00009177  00000+0  72005-3 0  9995
2 62706  97.7037 151.6973 0006582 159.9869 200.1615 15.01147598 85230
